{"type": "FeatureCollection", "features": [ {"type": "Feature", "properties": {"norad_id": 42969, "name": "SENTINEL-5P", "group": "resource", "lat": 45.9875461594705, "lon": 113.25234217617911, "alt_km": 822.4741765122089, "timestamp": "2025-12-11T10:53:15.542464+00:00", "meta": {"OBJECT_NAME": "SENTINEL-5P", "OBJECT_ID": "2017-064A", "EPOCH": "2025-12-10T13:57:44.045856", "MEAN_MOTION": 14.1951665, "ECCENTRICITY": 9.63e-05, "INCLINATION": 98.7782, "RA_OF_ASC_NODE": 283.1851, "ARG_OF_PERICENTER": 87.8705, "MEAN_ANOMALY": 272.2581, "EPHEMERIS_TYPE": 0, "CLASSIFICATION_TYPE": "U", "NORAD_CAT_ID": 42969, "ELEMENT_SET_NO": 999, "REV_AT_EPOCH": 42280, "BSTAR": 0.00010287, "MEAN_MOTION_DOT": 1.73e-06, "MEAN_MOTION_DDOT": 0}, "tle": {"line1": "1 42969U 17064A   25344.58175979  .00000173  00000+0  10287-3 0  9998", "line2": "2 42969  98.7782 283.1851 0000963  87.8705 272.2581 14.19516650422805"}}, "geometry": {"type": "Point", "coordinates": [113.25234217617911, 45.9875461594705]}}, {"type": "Feature", "properties": {"norad_id": 42987, "name": "SKYSAT-C11", "group": "resource", "lat": 15.445083960403755, "lon": 120.85126196534978, "alt_km": 425.34418602064034, "timestamp": "2025-12-11T10:53:15.542475+00:00", "meta": {"OBJECT_NAME": "SKYSAT-C11", "OBJECT_ID": "2017-068A", "EPOCH": "2025-12-11T04:36:44.283744", "MEAN_MOTION": 15.4734116, "ECCENTRICITY": 9.85e-05, "INCLINATION": 97.4141, "RA_OF_ASC_NODE": 122.6453, "ARG_OF_PERICENTER": 104.9334, "MEAN_ANOMALY": 255.2025, "EPHEMERIS_TYPE": 0, "CLASSIFICATION_TYPE": "U", "NORAD_CAT_ID": 42987, "ELEMENT_SET_NO": 999, "REV_AT_EPOCH": 45407, "BSTAR": 0.00062559, "MEAN_MOTION_DOT": 0.00031949, "MEAN_MOTION_DDOT": 0}, "tle": {"line1": "1 42987U 17068A   25345.19217921  .00031949  00000+0  62559-3 0  9998", "line2": "2 42987  97.4141 122.6453 0000985 104.9334 255.2025 15.47341160454070"}}, "geometry": {"type": "Point", "coordinates": [120.85126196534978, 15.445083960403755]}}, {"type": "Feature", "properties": {"norad_id": 42988, "name": "SKYSAT-C10", "group": "resource", "lat": 12.475941485676074, "lon": -62.045494661224474, "alt_km": 469.314897147603, "timestamp": "2025-12-11T10:53:15.542487+00:00", "meta": {"OBJECT_NAME": "SKYSAT-C10", "OBJECT_ID": "2017-068B", "EPOCH": "2025-12-11T03:53:23.546112", "MEAN_MOTION": 15.32006211, "ECCENTRICITY": 0.0005345, "INCLINATION": 97.4257, "RA_OF_ASC_NODE": 116.0086, "ARG_OF_PERICENTER": 108.1889, "MEAN_ANOMALY": 251.9935, "EPHEMERIS_TYPE": 0, "CLASSIFICATION_TYPE": "U", "NORAD_CAT_ID": 42988, "ELEMENT_SET_NO": 999, "REV_AT_EPOCH": 45355, "BSTAR": 0.00052568, "MEAN_MOTION_DOT": 0.00016189, "MEAN_MOTION_DDOT": 0}, "tle": {"line1": "1 42988U 17068B   25345.16207808  .00016189  00000+0  52568-3 0  9997", "line2": "2 42988  97.4257 116.0086 0005345 108.1889 251.9935 15.32006211453558"}}, "geometry": {"type": "Point", "coordinates": [-62.045494661224474, 12.475941485676074]}}, {"type": "Feature", "properties": {"norad_id": 42989, "name": "SKYSAT-C9", "group": "resource", "lat": -3.8471864523449892, "lon": 116.19913962190243, "alt_km": 462.24458159122787, "timestamp": "2025-12-11T10:53:15.542498+00:00", "meta": {"OBJECT_NAME": "SKYSAT-C9", "OBJECT_ID": "2017-068C", "EPOCH": "2025-12-10T19:16:09.008256", "MEAN_MOTION": 15.35967716, "ECCENTRICITY": 0.0010648, "INCLINATION": 97.4187, "RA_OF_ASC_NODE": 115.0414, "ARG_OF_PERICENTER": 93.9134, "MEAN_ANOMALY": 266.3328, "EPHEMERIS_TYPE": 0, "CLASSIFICATION_TYPE": "U", "NORAD_CAT_ID": 42989, "ELEMENT_SET_NO": 999, "REV_AT_EPOCH": 45378, "BSTAR": 0.00053472, "MEAN_MOTION_DOT": 0.00018699, "MEAN_MOTION_DDOT": 0}, "tle": {"line1": "1 42989U 17068C   25344.80288204  .00018699  00000+0  53472-3 0  9990", "line2": "2 42989  97.4187 115.0414 0010648  93.9134 266.3328 15.35967716453781"}}, "geometry": {"type": "Point", "coordinates": [116.19913962190243, -3.8471864523449892]}}, {"type": "Feature", "properties": {"norad_id": 42990, "name": "SKYSAT-C8", "group": "resource", "lat": -18.320398772606044, "lon": 117.9243063554477, "alt_km": 471.26524756320396, "timestamp": "2025-12-11T10:53:15.542509+00:00", "meta": {"OBJECT_NAME": "SKYSAT-C8", "OBJECT_ID": "2017-068D", "EPOCH": "2025-12-10T19:18:03.305088", "MEAN_MOTION": 15.32847399, "ECCENTRICITY": 0.0001709, "INCLINATION": 97.4281, "RA_OF_ASC_NODE": 114.7963, "ARG_OF_PERICENTER": 358.0878, "MEAN_ANOMALY": 2.0357, "EPHEMERIS_TYPE": 0, "CLASSIFICATION_TYPE": "U", "NORAD_CAT_ID": 42990, "ELEMENT_SET_NO": 999, "REV_AT_EPOCH": 45341, "BSTAR": 0.00049354, "MEAN_MOTION_DOT": 0.00015593, "MEAN_MOTION_DDOT": 0}, "tle": {"line1": "1 42990U 17068D   25344.80420492  .00015593  00000+0  49354-3 0  9993", "line2": "2 42990  97.4281 114.7963 0001709 358.0878   2.0357 15.32847399453419"}}, "geometry": {"type": "Point", "coordinates": [117.9243063554477, -18.320398772606044]}}, {"type": "Feature", "properties": {"norad_id": 42991, "name": "SKYSAT-C7", "group": "resource", "lat": -19.83260465541862, "lon": -66.20694202701642, "alt_km": 478.28975340497254, "timestamp": "2025-12-11T10:53:15.542520+00:00", "meta": {"OBJECT_NAME": "SKYSAT-C7", "OBJECT_ID": "2017-068E", "EPOCH": "2025-12-11T02:10:55.125984", "MEAN_MOTION": 15.32265917, "ECCENTRICITY": 0.000772, "INCLINATION": 97.4286, "RA_OF_ASC_NODE": 116.1264, "ARG_OF_PERICENTER": 62.0604, "MEAN_ANOMALY": 298.1418, "EPHEMERIS_TYPE": 0, "CLASSIFICATION_TYPE": "U", "NORAD_CAT_ID": 42991, "ELEMENT_SET_NO": 999, "REV_AT_EPOCH": 45352, "BSTAR": 0.00052822, "MEAN_MOTION_DOT": 0.00016409, "MEAN_MOTION_DDOT": 0}, "tle": {"line1": "1 42991U 17068E   25345.09091581  .00016409  00000+0  52822-3 0  9990", "line2": "2 42991  97.4286 116.1264 0007720  62.0604 298.1418 15.32265917453521"}}, "geometry": {"type": "Point", "coordinates": [-66.20694202701642, -19.83260465541862]}}, {"type": "Feature", "properties": {"norad_id": 42992, "name": "SKYSAT-C6", "group": "resource", "lat": -39.13827790172242, "lon": 123.02788329117521, "alt_km": 480.0909494026755, "timestamp": "2025-12-11T10:53:15.542531+00:00", "meta": {"OBJECT_NAME": "SKYSAT-C6", "OBJECT_ID": "2017-068F", "EPOCH": "2025-12-10T19:22:41.837088", "MEAN_MOTION": 15.3142184, "ECCENTRICITY": 0.00052036, "INCLINATION": 97.432, "RA_OF_ASC_NODE": 116.2821, "ARG_OF_PERICENTER": 87.635, "MEAN_ANOMALY": 272.5487, "EPHEMERIS_TYPE": 0, "CLASSIFICATION_TYPE": "U", "NORAD_CAT_ID": 42992, "ELEMENT_SET_NO": 999, "REV_AT_EPOCH": 45346, "BSTAR": 0.00052032995, "MEAN_MOTION_DOT": 0.00015733, "MEAN_MOTION_DDOT": 0}, "tle": {"line1": "1 42992U 17068F   25344.80742867  .00015733  00000+0  52033-3 0  9992", "line2": "2 42992  97.4320 116.2821 0005203  87.6350 272.5487 15.31421840453469"}}, "geometry": {"type": "Point", "coordinates": [123.02788329117521, -39.13827790172242]}}, {"type": "Feature", "properties": {"norad_id": 43111, "name": "CARTOSAT-2F", "group": "resource", "lat": 55.76887552775042, "lon": -125.82810994809157, "alt_km": 502.24573840347057, "timestamp": "2025-12-11T10:53:15.542544+00:00", "meta": {"OBJECT_NAME": "CARTOSAT-2F", "OBJECT_ID": "2018-004A", "EPOCH": "2025-12-11T04:01:23.601792", "MEAN_MOTION": 15.19251105, "ECCENTRICITY": 8.86e-05, "INCLINATION": 97.4316, "RA_OF_ASC_NODE": 42.8301, "ARG_OF_PERICENTER": 147.7114, "MEAN_ANOMALY": 212.4175, "EPHEMERIS_TYPE": 0, "CLASSIFICATION_TYPE": "U", "NORAD_CAT_ID": 43111, "ELEMENT_SET_NO": 999, "REV_AT_EPOCH": 43878, "BSTAR": 0.00045299, "MEAN_MOTION_DOT": 9.485e-05, "MEAN_MOTION_DDOT": 0}, "tle": {"line1": "1 43111U 18004A   25345.16763428  .00009485  00000+0  45299-3 0  9996", "line2": "2 43111  97.4316  42.8301 0000886 147.7114 212.4175 15.19251105438789"}}, "geometry": {"type": "Point", "coordinates": [-125.82810994809157, 55.76887552775042]}}, {"type": "Feature", "properties": {"norad_id": 43259, "name": "GAOFEN-1 02", "group": "resource", "lat": 81.61593118193468, "lon": -31.322672619126923, "alt_km": 633.683477994683, "timestamp": "2025-12-11T10:53:15.542556+00:00", "meta": {"OBJECT_NAME": "GAOFEN-1 02", "OBJECT_ID": "2018-031A", "EPOCH": "2025-12-11T03:59:08.118816", "MEAN_MOTION": 14.7647355, "ECCENTRICITY": 0.0001535, "INCLINATION": 98.0804, "RA_OF_ASC_NODE": 42.9546, "ARG_OF_PERICENTER": 216.7673, "MEAN_ANOMALY": 143.3431, "EPHEMERIS_TYPE": 0, "CLASSIFICATION_TYPE": "U", "NORAD_CAT_ID": 43259, "ELEMENT_SET_NO": 999, "REV_AT_EPOCH": 41495, "BSTAR": 0.00015538, "MEAN_MOTION_DOT": 1.03e-05, "MEAN_MOTION_DDOT": 0}, "tle": {"line1": "1 43259U 18031A   25345.16606619  .00001030  00000+0  15538-3 0  9998", "line2": "2 43259  98.0804  42.9546 0001535 216.7673 143.3431 14.76473550414954"}}, "geometry": {"type": "Point", "coordinates": [-31.322672619126923, 81.61593118193468]}}, {"type": "Feature", "properties": {"norad_id": 43260, "name": "GAOFEN-1 03", "group": "resource", "lat": -22.854956480231294, "lon": -140.3133262812512, "alt_km": 646.902111854436, "timestamp": "2025-12-11T10:53:15.542567+00:00", "meta": {"OBJECT_NAME": "GAOFEN-1 03", "OBJECT_ID": "2018-031B", "EPOCH": "2025-12-11T05:05:28.995360", "MEAN_MOTION": 14.76431473, "ECCENTRICITY": 0.0002085, "INCLINATION": 98.0801, "RA_OF_ASC_NODE": 42.8779, "ARG_OF_PERICENTER": 329.1905, "MEAN_ANOMALY": 30.9182, "EPHEMERIS_TYPE": 0, "CLASSIFICATION_TYPE": "U", "NORAD_CAT_ID": 43260, "ELEMENT_SET_NO": 999, "REV_AT_EPOCH": 41495, "BSTAR": 0.00021074, "MEAN_MOTION_DOT": 1.414e-05, "MEAN_MOTION_DDOT": 0}, "tle": {"line1": "1 43260U 18031B   25345.21214115  .00001414  00000+0  21074-3 0  9990", "line2": "2 43260  98.0801  42.8779 0002085 329.1905  30.9182 14.76431473414950"}}, "geometry": {"type": "Point", "coordinates": [-140.3133262812512, -22.854956480231294]}}]}